[{"OBJECT_NAME":"STARLINK-5826","OBJECT_ID":"2023-028AT","EPOCH":"2026-03-09T18:27:48.359808","MEAN_MOTION":14.98361608,"ECCENTRICITY":0.00040009,"INCLINATION":69.9986,"RA_OF_ASC_NODE":204.4326,"ARG_OF_PERICENTER":275.9334,"MEAN_ANOMALY":84.1369,"EPHEMERIS_TYPE":0,"CLASSIFICATION_TYPE":"U","NORAD_CAT_ID":55782,"ELEMENT_SET_NO":999,"REV_AT_EPOCH":16703,"BSTAR":-7.5635032e-5,"MEAN_MOTION_DOT":-9.96e-6,"MEAN_MOTION_DDOT":0},{"OBJECT_NAME":"RROCI-2","OBJECT_ID":"2024-043J","EPOCH":"2026-03-09T21:40:56.693280","MEAN_MOTION":14.99383357,"ECCENTRICITY":0.00054118,"INCLINATION":97.8279,"RA_OF_ASC_NODE":200.9973,"ARG_OF_PERICENTER":337.3784,"MEAN_ANOMALY":22.7199,"EPHEMERIS_TYPE":0,"CLASSIFICATION_TYPE":"U","NORAD_CAT_ID":59106,"ELEMENT_SET_NO":999,"REV_AT_EPOCH":10988,"BSTAR":0.00035067832,"MEAN_MOTION_DOT":4.232e-5,"MEAN_MOTION_DDOT":0}]
